{"type": "FeatureCollection", "features": [ {"type": "Feature", "properties": {"norad_id": 30146, "name": "FENGYUN 1C DEB", "group": "fengyun-1c-debris", "lat": -77.5461461221291, "lon": -75.84249049841776, "alt_km": 1029.5290067735014, "timestamp": "2025-12-09T18:55:17.506138+00:00", "meta": {"OBJECT_NAME": "FENGYUN 1C DEB", "OBJECT_ID": "1999-025TB", "EPOCH": "2025-12-09T11:04:32.166624", "MEAN_MOTION": 13.86592167, "ECCENTRICITY": 0.01787341, "INCLINATION": 98.02, "RA_OF_ASC_NODE": 143.5473, "ARG_OF_PERICENTER": 131.9505, "MEAN_ANOMALY": 295.9196, "EPHEMERIS_TYPE": 0, "CLASSIFICATION_TYPE": "U", "NORAD_CAT_ID": 30146, "ELEMENT_SET_NO": 999, "REV_AT_EPOCH": 95372, "BSTAR": 0.0011003059, "MEAN_MOTION_DOT": 1.417e-05, "MEAN_MOTION_DDOT": 0}, "tle": {"line1": "1 30146U 99025TB  25343.46148341  .00001417  00000+0  11003-2 0  9996", "line2": "2 30146  98.0200 143.5473 0178734 131.9505 295.9196 13.86592167953721"}}, "geometry": {"type": "Point", "coordinates": [-75.84249049841776, -77.5461461221291]}}, {"type": "Feature", "properties": {"norad_id": 30148, "name": "FENGYUN 1C DEB", "group": "fengyun-1c-debris", "lat": -79.24988403566168, "lon": -109.37728767786271, "alt_km": 891.70376741584, "timestamp": "2025-12-09T18:55:17.506148+00:00", "meta": {"OBJECT_NAME": "FENGYUN 1C DEB", "OBJECT_ID": "1999-025TD", "EPOCH": "2025-12-09T09:19:19.380864", "MEAN_MOTION": 13.88476713, "ECCENTRICITY": 0.01348937, "INCLINATION": 99.5451, "RA_OF_ASC_NODE": 132.6155, "ARG_OF_PERICENTER": 205.5828, "MEAN_ANOMALY": 219.8765, "EPHEMERIS_TYPE": 0, "CLASSIFICATION_TYPE": "U", "NORAD_CAT_ID": 30148, "ELEMENT_SET_NO": 999, "REV_AT_EPOCH": 95470, "BSTAR": 0.0015237794, "MEAN_MOTION_DOT": 1.921e-05, "MEAN_MOTION_DDOT": 0}, "tle": {"line1": "1 30148U 99025TD  25343.38841876  .00001921  00000+0  15238-2 0  9996", "line2": "2 30148  99.5451 132.6155 0134893 205.5828 219.8765 13.88476713954703"}}, "geometry": {"type": "Point", "coordinates": [-109.37728767786271, -79.24988403566168]}}, {"type": "Feature", "properties": {"norad_id": 30150, "name": "FENGYUN 1C DEB", "group": "fengyun-1c-debris", "lat": 61.09058892941519, "lon": 103.22641781249484, "alt_km": 911.3470850456815, "timestamp": "2025-12-09T18:55:17.506158+00:00", "meta": {"OBJECT_NAME": "FENGYUN 1C DEB", "OBJECT_ID": "1999-025TF", "EPOCH": "2025-12-09T08:29:39.645312", "MEAN_MOTION": 13.86588049, "ECCENTRICITY": 0.01465788, "INCLINATION": 98.9942, "RA_OF_ASC_NODE": 119.4746, "ARG_OF_PERICENTER": 345.3391, "MEAN_ANOMALY": 67.9228, "EPHEMERIS_TYPE": 0, "CLASSIFICATION_TYPE": "U", "NORAD_CAT_ID": 30150, "ELEMENT_SET_NO": 999, "REV_AT_EPOCH": 95411, "BSTAR": 0.00078052469, "MEAN_MOTION_DOT": 9.44e-06, "MEAN_MOTION_DDOT": 0}, "tle": {"line1": "1 30150U 99025TF  25343.35393108  .00000944  00000+0  78052-3 0  9994", "line2": "2 30150  98.9942 119.4746 0146578 345.3391  67.9228 13.86588049954119"}}, "geometry": {"type": "Point", "coordinates": [103.22641781249484, 61.09058892941519]}}, {"type": "Feature", "properties": {"norad_id": 30151, "name": "FENGYUN 1C DEB", "group": "fengyun-1c-debris", "lat": -62.6824192228516, "lon": 153.86653882988819, "alt_km": 866.4365486157876, "timestamp": "2025-12-09T18:55:17.506168+00:00", "meta": {"OBJECT_NAME": "FENGYUN 1C DEB", "OBJECT_ID": "1999-025TG", "EPOCH": "2025-12-09T00:43:01.657920", "MEAN_MOTION": 13.84464365, "ECCENTRICITY": 0.01631934, "INCLINATION": 99.063, "RA_OF_ASC_NODE": 351.1336, "ARG_OF_PERICENTER": 288.7889, "MEAN_ANOMALY": 138.0683, "EPHEMERIS_TYPE": 0, "CLASSIFICATION_TYPE": "U", "NORAD_CAT_ID": 30151, "ELEMENT_SET_NO": 999, "REV_AT_EPOCH": 95194, "BSTAR": 0.00091587178, "MEAN_MOTION_DOT": 1.094e-05, "MEAN_MOTION_DDOT": 0}, "tle": {"line1": "1 30151U 99025TG  25343.02988030  .00001094  00000+0  91587-3 0  9998", "line2": "2 30151  99.0630 351.1336 0163193 288.7889 138.0683 13.84464365951945"}}, "geometry": {"type": "Point", "coordinates": [153.86653882988819, -62.6824192228516]}}, {"type": "Feature", "properties": {"norad_id": 30152, "name": "FENGYUN 1C DEB", "group": "fengyun-1c-debris", "lat": -58.25298342029337, "lon": 6.5976269858180805, "alt_km": 1009.319007898549, "timestamp": "2025-12-09T18:55:17.506179+00:00", "meta": {"OBJECT_NAME": "FENGYUN 1C DEB", "OBJECT_ID": "1999-025TH", "EPOCH": "2025-12-09T12:38:04.697664", "MEAN_MOTION": 13.96651721, "ECCENTRICITY": 0.01615865, "INCLINATION": 99.08, "RA_OF_ASC_NODE": 201.3172, "ARG_OF_PERICENTER": 94.2078, "MEAN_ANOMALY": 267.7568, "EPHEMERIS_TYPE": 0, "CLASSIFICATION_TYPE": "U", "NORAD_CAT_ID": 30152, "ELEMENT_SET_NO": 999, "REV_AT_EPOCH": 95333, "BSTAR": 0.0033728297, "MEAN_MOTION_DOT": 5.179e-05, "MEAN_MOTION_DDOT": 0}, "tle": {"line1": "1 30152U 99025TH  25343.52644326  .00005179  00000+0  33728-2 0  9991", "line2": "2 30152  99.0800 201.3172 0161586  94.2078 267.7568 13.96651721953337"}}, "geometry": {"type": "Point", "coordinates": [6.5976269858180805, -58.25298342029337]}}, {"type": "Feature", "properties": {"norad_id": 30153, "name": "FENGYUN 1C DEB", "group": "fengyun-1c-debris", "lat": 63.5448627035277, "lon": -47.939814885247436, "alt_km": 870.353494047492, "timestamp": "2025-12-09T18:55:17.506189+00:00", "meta": {"OBJECT_NAME": "FENGYUN 1C DEB", "OBJECT_ID": "1999-025TJ", "EPOCH": "2025-12-09T10:38:44.306304", "MEAN_MOTION": 13.78755705, "ECCENTRICITY": 0.02008242, "INCLINATION": 100.4668, "RA_OF_ASC_NODE": 333.4871, "ARG_OF_PERICENTER": 13.9731, "MEAN_ANOMALY": 139.1391, "EPHEMERIS_TYPE": 0, "CLASSIFICATION_TYPE": "U", "NORAD_CAT_ID": 30153, "ELEMENT_SET_NO": 999, "REV_AT_EPOCH": 94729, "BSTAR": 0.0019358501, "MEAN_MOTION_DOT": 2.235e-05, "MEAN_MOTION_DDOT": 0}, "tle": {"line1": "1 30153U 99025TJ  25343.44356836  .00002235  00000+0  19359-2 0  9993", "line2": "2 30153 100.4668 333.4871 0200824  13.9731 139.1391 13.78755705947294"}}, "geometry": {"type": "Point", "coordinates": [-47.939814885247436, 63.5448627035277]}}, {"type": "Feature", "properties": {"norad_id": 30154, "name": "FENGYUN 1C DEB", "group": "fengyun-1c-debris", "lat": -57.53301961601067, "lon": -167.64982354316496, "alt_km": 835.3685042303114, "timestamp": "2025-12-09T18:55:17.506199+00:00", "meta": {"OBJECT_NAME": "FENGYUN 1C DEB", "OBJECT_ID": "1999-025TK", "EPOCH": "2025-12-08T02:12:11.837952", "MEAN_MOTION": 13.8596204, "ECCENTRICITY": 0.0182757, "INCLINATION": 98.4497, "RA_OF_ASC_NODE": 24.3287, "ARG_OF_PERICENTER": 211.3864, "MEAN_ANOMALY": 205.5322, "EPHEMERIS_TYPE": 0, "CLASSIFICATION_TYPE": "U", "NORAD_CAT_ID": 30154, "ELEMENT_SET_NO": 999, "REV_AT_EPOCH": 94920, "BSTAR": 0.0020652585, "MEAN_MOTION_DOT": 2.668e-05, "MEAN_MOTION_DDOT": 0}, "tle": {"line1": "1 30154U 99025TK  25342.09180368  .00002668  00000+0  20653-2 0  9998", "line2": "2 30154  98.4497  24.3287 0182757 211.3864 205.5322 13.85962040949208"}}, "geometry": {"type": "Point", "coordinates": [-167.64982354316496, -57.53301961601067]}}, {"type": "Feature", "properties": {"norad_id": 30155, "name": "FENGYUN 1C DEB", "group": "fengyun-1c-debris", "lat": -42.33563617666246, "lon": -131.76096181902193, "alt_km": 1100.6904547266204, "timestamp": "2025-12-09T18:55:17.506209+00:00", "meta": {"OBJECT_NAME": "FENGYUN 1C DEB", "OBJECT_ID": "1999-025TL", "EPOCH": "2025-12-09T03:50:37.290048", "MEAN_MOTION": 13.73780125, "ECCENTRICITY": 0.02418065, "INCLINATION": 99.7515, "RA_OF_ASC_NODE": 56.6118, "ARG_OF_PERICENTER": 353.1301, "MEAN_ANOMALY": 6.6554, "EPHEMERIS_TYPE": 0, "CLASSIFICATION_TYPE": "U", "NORAD_CAT_ID": 30155, "ELEMENT_SET_NO": 999, "REV_AT_EPOCH": 93815, "BSTAR": 0.002130195, "MEAN_MOTION_DOT": 2.413e-05, "MEAN_MOTION_DDOT": 0}, "tle": {"line1": "1 30155U 99025TL  25343.16015382  .00002413  00000+0  21302-2 0  9991", "line2": "2 30155  99.7515  56.6118 0241806 353.1301   6.6554 13.73780125938155"}}, "geometry": {"type": "Point", "coordinates": [-131.76096181902193, -42.33563617666246]}}, {"type": "Feature", "properties": {"norad_id": 30156, "name": "FENGYUN 1C DEB", "group": "fengyun-1c-debris", "lat": 45.65101908328511, "lon": -58.293547473590955, "alt_km": 1060.249024093965, "timestamp": "2025-12-09T18:55:17.506231+00:00", "meta": {"OBJECT_NAME": "FENGYUN 1C DEB", "OBJECT_ID": "1999-025TM", "EPOCH": "2025-12-09T16:08:14.038944", "MEAN_MOTION": 13.80796538, "ECCENTRICITY": 0.01995843, "INCLINATION": 98.9188, "RA_OF_ASC_NODE": 310.8408, "ARG_OF_PERICENTER": 271.1609, "MEAN_ANOMALY": 277.2981, "EPHEMERIS_TYPE": 0, "CLASSIFICATION_TYPE": "U", "NORAD_CAT_ID": 30156, "ELEMENT_SET_NO": 999, "REV_AT_EPOCH": 94648, "BSTAR": 0.0025029331, "MEAN_MOTION_DOT": 3.02e-05, "MEAN_MOTION_DDOT": 0}, "tle": {"line1": "1 30156U 99025TM  25343.67238471  .00003020  00000+0  25029-2 0  9999", "line2": "2 30156  98.9188 310.8408 0199584 271.1609 277.2981 13.80796538946483"}}, "geometry": {"type": "Point", "coordinates": [-58.293547473590955, 45.65101908328511]}}, {"type": "Feature", "properties": {"norad_id": 30157, "name": "FENGYUN 1C DEB", "group": "fengyun-1c-debris", "lat": 0.38822212728746514, "lon": 80.68557910865745, "alt_km": 769.3494619104358, "timestamp": "2025-12-09T18:55:17.506242+00:00", "meta": {"OBJECT_NAME": "FENGYUN 1C DEB", "OBJECT_ID": "1999-025TN", "EPOCH": "2025-12-07T19:18:40.552992", "MEAN_MOTION": 14.44985818, "ECCENTRICITY": 0.00369925, "INCLINATION": 98.7157, "RA_OF_ASC_NODE": 78.7105, "ARG_OF_PERICENTER": 207.5655, "MEAN_ANOMALY": 279.1312, "EPHEMERIS_TYPE": 0, "CLASSIFICATION_TYPE": "U", "NORAD_CAT_ID": 30157, "ELEMENT_SET_NO": 999, "REV_AT_EPOCH": 98001, "BSTAR": 0.0037873457, "MEAN_MOTION_DOT": 0.000133, "MEAN_MOTION_DDOT": 0}, "tle": {"line1": "1 30157U 99025TN  25341.80463603  .00013300  00000+0  37873-2 0  9992", "line2": "2 30157  98.7157  78.7105 0036992 207.5655 279.1312 14.44985818980017"}}, "geometry": {"type": "Point", "coordinates": [80.68557910865745, 0.38822212728746514]}}]}